{
  "type": "FeatureCollection",
  "features": [
    {
      "type": "Feature",
      "properties": {
        "norad_id": 47104,
        "name": "FENGYUN 1C DEB",
        "group": "fengyun-1c-debris",
        "lat": 19.27223033583603,
        "lon": 23.67618972538222,
        "alt_km": 818.8333358789068,
        "timestamp": "2025-12-23T05:02:12.321533+00:00",
        "meta_object_name": "FENGYUN 1C DEB",
        "meta_object_id": "1999-025FCC",
        "meta_epoch": "2025-12-20T19:25:32.617920",
        "meta_mean_motion": 14.19434358,
        "meta_eccentricity": 0.00403981,
        "meta_inclination": 98.9084,
        "meta_ra_of_asc_node": 24.4065,
        "meta_arg_of_pericenter": 313.3102,
        "meta_mean_anomaly": 46.4707,
        "meta_ephemeris_type": 0,
        "meta_classification_type": "U",
        "meta_norad_cat_id": 47104,
        "meta_element_set_no": 999,
        "meta_rev_at_epoch": 62487,
        "meta_bstar": 0.00016269056,
        "meta_mean_motion_dot": 2.99e-06,
        "meta_mean_motion_ddot": 0,
        "tle_line1": "1 47104U 99025FCC 25354.80940530  .00000299  00000+0  16269-3 0  9995",
        "tle_line2": "2 47104  98.9084  24.4065 0040398 313.3102  46.4707 14.19434358624871"
      },
      "geometry": {
        "type": "Point",
        "coordinates": [
          23.67618972538222,
          19.27223033583603
        ]
      }
    }
  ]
}